[{"OBJECT_NAME":"TEVEL2-3","OBJECT_ID":"2025-052J","EPOCH":"2026-03-09T15:29:22.754400","MEAN_MOTION":15.30377031,"ECCENTRICITY":0.0004761,"INCLINATION":97.3994,"RA_OF_ASC_NODE":324.7775,"ARG_OF_PERICENTER":105.7353,"MEAN_ANOMALY":254.4413,"EPHEMERIS_TYPE":0,"CLASSIFICATION_TYPE":"U","NORAD_CAT_ID":63218,"ELEMENT_SET_NO":999,"REV_AT_EPOCH":5485,"BSTAR":0.00069446,"MEAN_MOTION_DOT":0.00020365,"MEAN_MOTION_DDOT":0},{"OBJECT_NAME":"STARLINK-35806","OBJECT_ID":"2025-254R","EPOCH":"2026-03-09T16:57:25.622784","MEAN_MOTION":15.30238893,"ECCENTRICITY":0.00066235,"INCLINATION":53.1605,"RA_OF_ASC_NODE":232.7024,"ARG_OF_PERICENTER":176.9947,"MEAN_ANOMALY":183.1095,"EPHEMERIS_TYPE":0,"CLASSIFICATION_TYPE":"U","NORAD_CAT_ID":66363,"ELEMENT_SET_NO":999,"REV_AT_EPOCH":1897,"BSTAR":0.0010008103,"MEAN_MOTION_DOT":0.0002945,"MEAN_MOTION_DDOT":0}]
